{"type": "FeatureCollection", "features": [ {"type": "Feature", "properties": {"norad_id": 33153, "name": "INTELSAT 25 (IS-25)", "group": "intelsat", "lat": 1.7717335550346172, "lon": 133.4069312792351, "alt_km": 35801.6481519778, "timestamp": "2025-12-26T04:40:05.455882+00:00", "meta": {"OBJECT_NAME": "INTELSAT 25 (IS-25)", "OBJECT_ID": "2008-034A", "EPOCH": "2025-12-25T09:29:36.384000", "MEAN_MOTION": 1.0027183, "ECCENTRICITY": 0.0004941, "INCLINATION": 2.2584, "RA_OF_ASC_NODE": 82.5122, "ARG_OF_PERICENTER": 189.7179, "MEAN_ANOMALY": 292.833, "EPHEMERIS_TYPE": 0, "CLASSIFICATION_TYPE": "U", "NORAD_CAT_ID": 33153, "ELEMENT_SET_NO": 999, "REV_AT_EPOCH": 6395, "BSTAR": 0, "MEAN_MOTION_DOT": -2.03e-06, "MEAN_MOTION_DDOT": 0}, "tle": {"line1": "1 33153U 08034A   25359.39556000 -.00000203  00000+0  00000+0 0  9996", "line2": "2 33153   2.2584  82.5122 0004941 189.7179 292.8330  1.00271830 63950"}}, "geometry": {"type": "Point", "coordinates": [133.4069312792351, 1.7717335550346172]}}, {"type": "Feature", "properties": {"norad_id": 33376, "name": "GALAXY 19 (G-19)", "group": "intelsat", "lat": 0.02582864691929395, "lon": 67.97402392412158, "alt_km": 35795.84192630901, "timestamp": "2025-12-26T04:40:05.455894+00:00", "meta": {"OBJECT_NAME": "GALAXY 19 (G-19)", "OBJECT_ID": "2008-045A", "EPOCH": "2025-12-25T10:42:38.666304", "MEAN_MOTION": 1.00271832, "ECCENTRICITY": 0.0002747, "INCLINATION": 0.0408, "RA_OF_ASC_NODE": 264.6224, "ARG_OF_PERICENTER": 16.378, "MEAN_ANOMALY": 236.8641, "EPHEMERIS_TYPE": 0, "CLASSIFICATION_TYPE": "U", "NORAD_CAT_ID": 33376, "ELEMENT_SET_NO": 999, "REV_AT_EPOCH": 6316, "BSTAR": 0, "MEAN_MOTION_DOT": -1.18e-06, "MEAN_MOTION_DDOT": 0}, "tle": {"line1": "1 33376U 08045A   25359.44628086 -.00000118  00000+0  00000+0 0  9990", "line2": "2 33376   0.0408 264.6224 0002747  16.3780 236.8641  1.00271832 63167"}}, "geometry": {"type": "Point", "coordinates": [67.97402392412158, 0.02582864691929395]}}, {"type": "Feature", "properties": {"norad_id": 35493, "name": "FM-5", "group": "intelsat", "lat": 0.021234644244601645, "lon": 78.795030394501, "alt_km": 35786.323815510084, "timestamp": "2025-12-26T04:40:05.455907+00:00", "meta": {"OBJECT_NAME": "FM-5", "OBJECT_ID": "2009-034A", "EPOCH": "2025-12-25T21:13:02.840160", "MEAN_MOTION": 1.00269478, "ECCENTRICITY": 7.896e-05, "INCLINATION": 0.0148, "RA_OF_ASC_NODE": 303.8545, "ARG_OF_PERICENTER": 217.7513, "MEAN_ANOMALY": 165.1409, "EPHEMERIS_TYPE": 0, "CLASSIFICATION_TYPE": "U", "NORAD_CAT_ID": 35493, "ELEMENT_SET_NO": 999, "REV_AT_EPOCH": 4490, "BSTAR": 0, "MEAN_MOTION_DOT": -1.78e-06, "MEAN_MOTION_DDOT": 0}, "tle": {"line1": "1 35493U 09034A   25359.88406065 -.00000178  00000+0  00000+0 0  9996", "line2": "2 35493   0.0148 303.8545 0000789 217.7513 165.1409  1.00269478 44907"}}, "geometry": {"type": "Point", "coordinates": [78.795030394501, 0.021234644244601645]}}, {"type": "Feature", "properties": {"norad_id": 36097, "name": "INTELSAT 14 (IS-14)", "group": "intelsat", "lat": 0.03189573760345534, "lon": 119.92102477980134, "alt_km": 35797.85579390827, "timestamp": "2025-12-26T04:40:05.455919+00:00", "meta": {"OBJECT_NAME": "INTELSAT 14 (IS-14)", "OBJECT_ID": "2009-064A", "EPOCH": "2025-12-24T11:10:22.140192", "MEAN_MOTION": 1.00269035, "ECCENTRICITY": 0.0002637, "INCLINATION": 0.013, "RA_OF_ASC_NODE": 11.8022, "ARG_OF_PERICENTER": 274.0942, "MEAN_ANOMALY": 289.9229, "EPHEMERIS_TYPE": 0, "CLASSIFICATION_TYPE": "U", "NORAD_CAT_ID": 36097, "ELEMENT_SET_NO": 999, "REV_AT_EPOCH": 5885, "BSTAR": 0, "MEAN_MOTION_DOT": -2.53e-06, "MEAN_MOTION_DDOT": 0}, "tle": {"line1": "1 36097U 09064A   25358.46553403 -.00000253  00000+0  00000+0 0  9996", "line2": "2 36097   0.0130  11.8022 0002637 274.0942 289.9229  1.00269035 58854"}}, "geometry": {"type": "Point", "coordinates": [119.92102477980134, 0.03189573760345534]}}, {"type": "Feature", "properties": {"norad_id": 36106, "name": "INTELSAT 15 (IS-15)", "group": "intelsat", "lat": -0.017459222775236764, "lon": -109.90528043490302, "alt_km": 35778.3671827821, "timestamp": "2025-12-26T04:40:05.455931+00:00", "meta": {"OBJECT_NAME": "INTELSAT 15 (IS-15)", "OBJECT_ID": "2009-067A", "EPOCH": "2025-12-25T21:36:38.577600", "MEAN_MOTION": 1.00270275, "ECCENTRICITY": 0.00024098, "INCLINATION": 0.0144, "RA_OF_ASC_NODE": 49.9659, "ARG_OF_PERICENTER": 237.0636, "MEAN_ANOMALY": 216.9386, "EPHEMERIS_TYPE": 0, "CLASSIFICATION_TYPE": "U", "NORAD_CAT_ID": 36106, "ELEMENT_SET_NO": 999, "REV_AT_EPOCH": 3949, "BSTAR": 0, "MEAN_MOTION_DOT": -1.63e-06, "MEAN_MOTION_DDOT": 0}, "tle": {"line1": "1 36106U 09067A   25359.90044650 -.00000163  00000+0  00000+0 0  9999", "line2": "2 36106   0.0144  49.9659 0002409 237.0636 216.9386  1.00270275 39495"}}, "geometry": {"type": "Point", "coordinates": [-109.90528043490302, -0.017459222775236764]}}, {"type": "Feature", "properties": {"norad_id": 36131, "name": "DIRECTV 12", "group": "intelsat", "lat": -0.00671055741922052, "lon": 62.25734879593131, "alt_km": 35786.380138219996, "timestamp": "2025-12-26T04:40:05.455942+00:00", "meta": {"OBJECT_NAME": "DIRECTV 12", "OBJECT_ID": "2009-075A", "EPOCH": "2025-12-25T14:17:27.635136", "MEAN_MOTION": 1.00273448, "ECCENTRICITY": 5.26e-05, "INCLINATION": 0.0362, "RA_OF_ASC_NODE": 165.2057, "ARG_OF_PERICENTER": 147.3669, "MEAN_ANOMALY": 253.4343, "EPHEMERIS_TYPE": 0, "CLASSIFICATION_TYPE": "U", "NORAD_CAT_ID": 36131, "ELEMENT_SET_NO": 999, "REV_AT_EPOCH": 4481, "BSTAR": 0, "MEAN_MOTION_DOT": -8.2e-07, "MEAN_MOTION_DDOT": 0}, "tle": {"line1": "1 36131U 09075A   25359.59545874 -.00000082  00000+0  00000+0 0  9995", "line2": "2 36131   0.0362 165.2057 0000526 147.3669 253.4343  1.00273448 44812"}}, "geometry": {"type": "Point", "coordinates": [62.25734879593131, -0.00671055741922052]}}, {"type": "Feature", "properties": {"norad_id": 36397, "name": "INTELSAT 16 (IS-16)", "group": "intelsat", "lat": 0.027081426497469908, "lon": 88.7772144873829, "alt_km": 35794.24841839869, "timestamp": "2025-12-26T04:40:05.455954+00:00", "meta": {"OBJECT_NAME": "INTELSAT 16 (IS-16)", "OBJECT_ID": "2010-006A", "EPOCH": "2025-12-25T04:32:09.998304", "MEAN_MOTION": 1.00272308, "ECCENTRICITY": 0.00019441, "INCLINATION": 0.0098, "RA_OF_ASC_NODE": 346.2974, "ARG_OF_PERICENTER": 284.2377, "MEAN_ANOMALY": 175.2747, "EPHEMERIS_TYPE": 0, "CLASSIFICATION_TYPE": "U", "NORAD_CAT_ID": 36397, "ELEMENT_SET_NO": 999, "REV_AT_EPOCH": 5791, "BSTAR": 0, "MEAN_MOTION_DOT": -2.23e-06, "MEAN_MOTION_DDOT": 0}, "tle": {"line1": "1 36397U 10006A   25359.18900461 -.00000223  00000+0  00000+0 0  9994", "line2": "2 36397   0.0098 346.2974 0001944 284.2377 175.2747  1.00272308 57911"}}, "geometry": {"type": "Point", "coordinates": [88.7772144873829, 0.027081426497469908]}}, {"type": "Feature", "properties": {"norad_id": 37185, "name": "XM-5", "group": "intelsat", "lat": 0.050109300301743466, "lon": 49.74203959979385, "alt_km": 35786.9014307957, "timestamp": "2025-12-26T04:40:05.455967+00:00", "meta": {"OBJECT_NAME": "XM-5", "OBJECT_ID": "2010-053A", "EPOCH": "2025-12-25T12:31:00.329376", "MEAN_MOTION": 1.0027234, "ECCENTRICITY": 0.0001895, "INCLINATION": 0.0637, "RA_OF_ASC_NODE": 269.6529, "ARG_OF_PERICENTER": 237.5328, "MEAN_ANOMALY": 19.6486, "EPHEMERIS_TYPE": 0, "CLASSIFICATION_TYPE": "U", "NORAD_CAT_ID": 37185, "ELEMENT_SET_NO": 999, "REV_AT_EPOCH": 5574, "BSTAR": 0, "MEAN_MOTION_DOT": -2e-08, "MEAN_MOTION_DDOT": 0}, "tle": {"line1": "1 37185U 10053A   25359.52153159 -.00000002  00000+0  00000+0 0  9999", "line2": "2 37185   0.0637 269.6529 0001895 237.5328  19.6486  1.00272340 55748"}}, "geometry": {"type": "Point", "coordinates": [49.74203959979385, 0.050109300301743466]}}, {"type": "Feature", "properties": {"norad_id": 37238, "name": "INTELSAT 17 (IS-17)", "group": "intelsat", "lat": -0.0021567259815909296, "lon": -129.07333225320818, "alt_km": 35780.374034578206, "timestamp": "2025-12-26T04:40:05.455979+00:00", "meta": {"OBJECT_NAME": "INTELSAT 17 (IS-17)", "OBJECT_ID": "2010-065B", "EPOCH": "2025-12-25T22:03:33.893856", "MEAN_MOTION": 1.00271494, "ECCENTRICITY": 0.00027252, "INCLINATION": 0.0065, "RA_OF_ASC_NODE": 107.0593, "ARG_OF_PERICENTER": 183.9105, "MEAN_ANOMALY": 200.5883, "EPHEMERIS_TYPE": 0, "CLASSIFICATION_TYPE": "U", "NORAD_CAT_ID": 37238, "ELEMENT_SET_NO": 999, "REV_AT_EPOCH": 5151, "BSTAR": 0, "MEAN_MOTION_DOT": 2e-07, "MEAN_MOTION_DDOT": 0}, "tle": {"line1": "1 37238U 10065B   25359.91914229  .00000020  00000+0  00000+0 0  9996", "line2": "2 37238   0.0065 107.0593 0002725 183.9105 200.5883  1.00271494 51510"}}, "geometry": {"type": "Point", "coordinates": [-129.07333225320818, -0.0021567259815909296]}}, {"type": "Feature", "properties": {"norad_id": 37392, "name": "INTELSAT 28 (IS-28)", "group": "intelsat", "lat": 1.0305717777807553, "lon": 133.21941069436176, "alt_km": 35798.11181681801, "timestamp": "2025-12-26T04:40:05.455991+00:00", "meta": {"OBJECT_NAME": "INTELSAT 28 (IS-28)", "OBJECT_ID": "2011-016A", "EPOCH": "2025-12-25T07:46:46.230816", "MEAN_MOTION": 1.00271849, "ECCENTRICITY": 0.0003772, "INCLINATION": 1.3552, "RA_OF_ASC_NODE": 84.9189, "ARG_OF_PERICENTER": 187.6126, "MEAN_ANOMALY": 266.5422, "EPHEMERIS_TYPE": 0, "CLASSIFICATION_TYPE": "U", "NORAD_CAT_ID": 37392, "ELEMENT_SET_NO": 999, "REV_AT_EPOCH": 5154, "BSTAR": 0, "MEAN_MOTION_DOT": -2.04e-06, "MEAN_MOTION_DDOT": 0}, "tle": {"line1": "1 37392U 11016A   25359.32414619 -.00000204  00000+0  00000+0 0  9992", "line2": "2 37392   1.3552  84.9189 0003772 187.6126 266.5422  1.00271849 51545"}}, "geometry": {"type": "Point", "coordinates": [133.21941069436176, 1.0305717777807553]}}]}